STARLINK-4193           
1 52875U 22062AX  22179.58334491 -.00764720  00000+0 -41381-2 0  9993
2 52875  53.2178 350.2549 0002880  12.4684 209.4396 15.81308855  1307
STARLINK-4200           
1 52876U 22062AY  22179.58334491 -.00764634  00000+0 -41420-2 0  9992
2 52876  53.2178 350.2559 0002846  12.8064 208.3104 15.81286420  1305
STARLINK-4214           
1 52877U 22062AZ  22179.58334491 -.00764708  00000+0 -41338-2 0  9993
2 52877  53.2178 350.2533 0002903  12.2676 210.4432 15.81330501  1303
STARLINK-4171           
1 52878U 22062BA  22179.58334491 -.00764692  00000+0 -41359-2 0  9999
2 52878  53.2178 350.2535 0002879  12.7497 209.5653 15.81319379  1308
STARLINK-4139           
1 52879U 22062BB  22179.58334491 -.00764722  00000+0 -41274-2 0  9990
2 52879  53.2178 350.2509 0002890  12.3793 211.5119 15.81364232  1306
STARLINK-4186           
1 52880U 22062BC  22179.58334491 -.00764778  00000+0 -41300-2 0  9993
2 52880  53.2178 350.2511 0002856  12.5207 210.9807 15.81352837  1300
STARLINK-4192           
1 52881U 22062BD  22179.58334491 -.00764695  00000+0 -41319-2 0  9992
2 52881  53.2178 350.2525 0002817  12.8702 210.2503 15.81340855  1309
STARLINK-4181           
1 52882U 22062BE  22179.58334491 -.00764782  00000+0 -41258-2 0  9992
2 52882  53.2178 350.2495 0002871  12.6967 211.6051 15.81374546  1304
FALCON 9 DEB            
1 52883U 22062BF  22178.65990356  .00707231  11508-4  69752-3 0  9992
2 52883  53.2176 354.1447 0056878  77.0916 283.6463 16.07101341  1618
FALCON 9 DEB            
1 52884U 22062BG  22178.65629083  .00704113  11521-4  69112-3 0  9990
2 52884  53.2144 354.1147 0051916  78.6966 281.9897 16.07736663  1614
FALCON 9 DEB            
1 52885U 22062BH  22178.64849584  .00721463  11561-4  64726-3 0  9997
2 52885  53.2142 354.0561 0049383  72.3078 288.3340 16.09288695  1615
FALCON 9 DEB            
1 52886U 22062BJ  22178.77157674  .00810307  11578-4  69497-3 0  9998
2 52886  53.2160 353.4008 0049492  73.8465 286.8010 16.09899352  1639
SARAH-1                 
1 52887U 22063A   22174.76914807  .00057931  00000+0  16917-1 0  9990
2 52887  98.3930 181.8659 0001741 114.3380 245.7128 14.43706701  1277
GLOBALSTAR FM15         
1 52888U 22064A   22179.44067453 -.00000128  00000+0  00000+0 0  9999
2 52888  51.9755 198.0051 0009374 332.9075  27.1219 13.37542216  1200
2022-065A               
1 52894U 22065A   22179.40757085  .00000126  00000+0  37369-4 0  9990
2 52894  98.0193 330.4584 0008596 212.6150 147.4563 14.57558143  1040
2022-065B               
1 52895U 22065B   22179.40475314  .00000006  00000+0  10827-4 0  9990
2 52895  98.0200 330.4612 0007134 230.5850 129.4756 14.58135844  1049
KSLV-II R/B             
1 52896U 22065C   22179.65736830  .00003075  00000+0  61556-3 0  9994
2 52896  98.0693 330.7946 0004404  34.8296 325.3168 14.62501509  1072
TIANXING-1              
1 52901U 22066A   22179.41887080  .00153708  11150-4  34970-3 0  9992
2 52901  96.7408 223.9599 0009919 214.8308 270.5182 15.97423286  1009
GSAT 24                 
1 52903U 22067A   22179.50000000 -.00000253  00000+0  00000+0 0  9991
2 52903   0.0910 270.4230 0032790 332.0800 299.3910  1.00660728    98
MEASAT 3D               
1 52904U 22067B   22179.44781802 -.00000262  00000+0  00000+0 0  9991
2 52904   0.0844 315.8785 0012210 280.1089 290.7897  1.00540720   123
ARIANE 5 DEB [SYLDA]    
1 52905U 22067C   22179.27301530  .00024077  00000+0  84186-2 0  9998
2 52905   6.0091  63.3948 7275248 182.4489  74.4116  2.28289320   114
ARIANE 5 R/B            
1 52906U 22067D   22179.27336418  .00002978  00000+0  77878-3 0  9999
2 52906   6.1821  61.4708 7279066 184.2035  83.5058  2.28638052   115
YAOGAN-35 D             
1 52907U 22068A   22179.48281250  .00005501  00000+0  21891-3 0  9996
2 52907  34.9966 248.4197 0009425 324.2262 216.7944 15.24579848   813
YAOGAN-35 E             
1 52908U 22068B   22179.48194444  .00008405  00000+0  33010-3 0  9997
2 52908  34.9957 248.4086 0009584 333.7000 208.9207 15.24923887   789
YAOGAN-35 F             
1 52909U 22068C   22179.52128771 -.00000715  00000+0 -27208-4 0  9994
2 52909  34.9963 248.2042 0008586 312.7773  70.2752 15.24060045   831
CZ-2D R/B               
1 52910U 22068D   22179.58161174  .00019740  00000+0  78327-3 0  9999
2 52910  34.9982 247.8096 0009416 318.1952  41.8016 15.24447568   803
CZ-2D DEB               
1 52911U 22068E   22179.44959223  .00013932  00000+0  54925-3 0  9990
2 52911  34.9987 248.6270 0009969 325.1597  34.8946 15.24710256   786
GAOFEN 12-3             
1 52912U 22069A   22179.64171648 -.00000058  00000+0  00000+0 0  9998
2 52912  97.9851  67.3057 0005174 266.7068  93.3335 14.90378450   153
CZ-4C R/B               
1 52913U 22069B   22179.63102050  .00015923  00000+0  99357-3 0  9992
2 52913  97.9739  67.3130 0074193  42.8426 317.8550 15.07285971   145
CAPSTONE & PHOTON R/B   
1 52914U 22070A   22179.72727899 -.00001216  38181-5  00000+0 0  9990
2 52914  39.1139 331.6763 0564086 331.0714 154.0059 14.74663513    44
ELECTRON R/B            
1 52915U 22070B   22179.56919081  .22335157  61200-5  76335-3 0  9992
2 52915  39.0963 332.3689 0012514 291.0403 156.8821 16.43603202    20
